[{"OBJECT_NAME":"NOAA 21 (JPSS-2)","OBJECT_ID":"2022-150A","EPOCH":"2026-03-09T22:24:21.794976","MEAN_MOTION":14.19552367,"ECCENTRICITY":0.00026632,"INCLINATION":98.7554,"RA_OF_ASC_NODE":9.1966,"ARG_OF_PERICENTER":105.7668,"MEAN_ANOMALY":254.3802,"EPHEMERIS_TYPE":0,"CLASSIFICATION_TYPE":"U","NORAD_CAT_ID":54234,"ELEMENT_SET_NO":999,"REV_AT_EPOCH":17246,"BSTAR":8.7164891e-5,"MEAN_MOTION_DOT":1.4e-6,"MEAN_MOTION_DDOT":0},{"OBJECT_NAME":"FENGYUN 1C DEB","OBJECT_ID":"1999-025NS","EPOCH":"2026-03-09T21:45:10.844928","MEAN_MOTION":14.13359171,"ECCENTRICITY":0.00337026,"INCLINATION":99.4666,"RA_OF_ASC_NODE":185.4082,"ARG_OF_PERICENTER":336.5126,"MEAN_ANOMALY":141.5661,"EPHEMERIS_TYPE":0,"CLASSIFICATION_TYPE":"U","NORAD_CAT_ID":30041,"ELEMENT_SET_NO":999,"REV_AT_EPOCH":98518,"BSTAR":0.00048905468,"MEAN_MOTION_DOT":8.74e-6,"MEAN_MOTION_DDOT":0}]
